start=new Date('2022-02-23T00:00:00.000Z').valueOf();
sats=[{"REV_AT_EPOCH":"9399","LAUNCH_DATE":"2020-06-13","ARG_OF_PERICENTER":"57.1848","ECCENTRICITY":"0.00017250","GP_ID":"196681722","TIME_SYSTEM":"UTC","FILE":"3314780","CENTER_NAME":"EARTH","BSTAR":"-0.00001887800000","TLE_LINE2":"2 45755  53.0561   2.8482 0001725  57.1848 302.9307 15.06394954 93990","SEMIMAJOR_AXIS":"6925.364","OBJECT_ID":"2020-038AB","INCLINATION":"53.0561","OBJECT_NAME":"STARLINK-1478","TLE_LINE1":"1 45755U 20038AB  22053.64566401 -.00000563  00000-0 -18878-4 0  9995","MEAN_ANOMALY":"302.9307","COUNTRY_CODE":"US","SITE":"AFETR","MEAN_MOTION_DOT":"-0.00000563","ELEMENT_SET_NO":"999","EPHEMERIS_TYPE":"0","NORAD_CAT_ID":"45755","MEAN_ELEMENT_THEORY":"SGP4","RCS_SIZE":"LARGE","DECAY_DATE":null,"CLASSIFICATION_TYPE":"U","MEAN_MOTION_DDOT":"0.0000000000000","OBJECT_TYPE":"PAYLOAD","REF_FRAME":"TEME","MEAN_MOTION":"15.06394954","PERIAPSIS":"546.034","APOAPSIS":"548.424","EPOCH":"2022-02-22T15:29:45.370464","PERIOD":"95.592","RA_OF_ASC_NODE":"2.8482"},{"INCLINATION":"53.0566","OBJECT_ID":"2020-038AC","SEMIMAJOR_AXIS":"6925.382","TLE_LINE2":"2 45756  53.0566   1.9655 0001707  56.7706 303.3447 15.06389149 94021","BSTAR":"0.00000435250000","CENTER_NAME":"EARTH","EPHEMERIS_TYPE":"0","SITE":"AFETR","MEAN_MOTION_DOT":"-0.00000217","ELEMENT_SET_NO":"999","COUNTRY_CODE":"US","TLE_LINE1":"1 45756U 20038AC  22053.84103769 -.00000217  00000-0  43525-5 0  9995","MEAN_ANOMALY":"303.3447","OBJECT_NAME":"STARLINK-1484","ARG_OF_PERICENTER":"56.7706","REV_AT_EPOCH":"9402","LAUNCH_DATE":"2020-06-13","TIME_SYSTEM":"UTC","FILE":"3314780","GP_ID":"196682974","ECCENTRICITY":"0.00017070","PERIAPSIS":"546.065","MEAN_MOTION":"15.06389149","REF_FRAME":"TEME","RA_OF_ASC_NODE":"1.9655","PERIOD":"95.593","EPOCH":"2022-02-22T20:11:05.656416","APOAPSIS":"548.429","DECAY_DATE":null,"RCS_SIZE":"LARGE","MEAN_ELEMENT_THEORY":"SGP4","NORAD_CAT_ID":"45756","OBJECT_TYPE":"PAYLOAD","MEAN_MOTION_DDOT":"0.0000000000000","CLASSIFICATION_TYPE":"U"},{"OBJECT_ID":"2020-038AD","INCLINATION":"53.0553","SEMIMAJOR_AXIS":"6925.344","TLE_LINE2":"2 45757  53.0553   3.0726 0001698  58.5453 301.5702 15.06401570 93989","BSTAR":"0.00012277000000","CENTER_NAME":"EARTH","EPHEMERIS_TYPE":"0","MEAN_MOTION_DOT":"0.00001548","SITE":"AFETR","ELEMENT_SET_NO":"999","COUNTRY_CODE":"US","TLE_LINE1":"1 45757U 20038AD  22053.59405748  .00001548  00000-0  12277-3 0  9995","MEAN_ANOMALY":"301.5702","OBJECT_NAME":"STARLINK-1486","ARG_OF_PERICENTER":"58.5453","LAUNCH_DATE":"2020-06-13","REV_AT_EPOCH":"9398","FILE":"3314780","TIME_SYSTEM":"UTC","GP_ID":"196683225","ECCENTRICITY":"0.00016980","PERIAPSIS":"546.033","MEAN_MOTION":"15.06401570","REF_FRAME":"TEME","PERIOD":"95.592","RA_OF_ASC_NODE":"3.0726","EPOCH":"2022-02-22T14:15:26.566272","APOAPSIS":"548.385","DECAY_DATE":null,"RCS_SIZE":"LARGE","MEAN_ELEMENT_THEORY":"SGP4","NORAD_CAT_ID":"45757","OBJECT_TYPE":"PAYLOAD","MEAN_MOTION_DDOT":"0.0000000000000","CLASSIFICATION_TYPE":"U"},{"ECCENTRICITY":"0.00018310","GP_ID":"196681973","TIME_SYSTEM":"UTC","FILE":"3314780","LAUNCH_DATE":"2020-06-13","REV_AT_EPOCH":"9398","ARG_OF_PERICENTER":"47.8369","TLE_LINE1":"1 45758U 20038AE  22053.58668984 -.00004856  00000-0 -30717-3 0  9994","MEAN_ANOMALY":"312.2775","OBJECT_NAME":"STARLINK-1487","COUNTRY_CODE":"US","EPHEMERIS_TYPE":"0","MEAN_MOTION_DOT":"-0.00004856","SITE":"AFETR","ELEMENT_SET_NO":"999","BSTAR":"-0.00030717000000","CENTER_NAME":"EARTH","SEMIMAJOR_AXIS":"6925.305","TLE_LINE2":"2 45758  53.0564   3.1019 0001831  47.8369 312.2775 15.06414294 93980","OBJECT_ID":"2020-038AE","INCLINATION":"53.0564","MEAN_MOTION_DDOT":"0.0000000000000","CLASSIFICATION_TYPE":"U","OBJECT_TYPE":"PAYLOAD","NORAD_CAT_ID":"45758","RCS_SIZE":"LARGE","MEAN_ELEMENT_THEORY":"SGP4","DECAY_DATE":null,"APOAPSIS":"548.438","EPOCH":"2022-02-22T14:04:50.002176","PERIOD":"95.591","RA_OF_ASC_NODE":"3.1019","REF_FRAME":"TEME","MEAN_MOTION":"15.06414294","PERIAPSIS":"545.902"},{"ECCENTRICITY":"0.00019170","GP_ID":"196682223","FILE":"3314780","TIME_SYSTEM":"UTC","LAUNCH_DATE":"2020-06-13","REV_AT_EPOCH":"9403","ARG_OF_PERICENTER":"55.1917","MEAN_ANOMALY":"304.9252","TLE_LINE1":"1 45759U 20038AF  22053.89999811  .00000407  00000-0  46244-4 0  9994","OBJECT_NAME":"STARLINK-1493","COUNTRY_CODE":"US","EPHEMERIS_TYPE":"0","MEAN_MOTION_DOT":"0.00000407","SITE":"AFETR","ELEMENT_SET_NO":"999","BSTAR":"0.00004624400000","CENTER_NAME":"EARTH","SEMIMAJOR_AXIS":"6925.357","TLE_LINE2":"2 45759  53.0540   1.6898 0001917  55.1917 304.9252 15.06397214 94036","OBJECT_ID":"2020-038AF","INCLINATION":"53.0540","MEAN_MOTION_DDOT":"0.0000000000000","CLASSIFICATION_TYPE":"U","OBJECT_TYPE":"PAYLOAD","NORAD_CAT_ID":"45759","RCS_SIZE":"LARGE","MEAN_ELEMENT_THEORY":"SGP4","DECAY_DATE":null,"APOAPSIS":"548.550","EPOCH":"2022-02-22T21:35:59.836704","PERIOD":"95.592","RA_OF_ASC_NODE":"1.6898","REF_FRAME":"TEME","MEAN_MOTION":"15.06397214","PERIAPSIS":"545.895"},{"TLE_LINE2":"2 45760  53.0565   1.9897 0001673  57.2462 302.8688 15.06391767 94031","SEMIMAJOR_AXIS":"6925.374","CENTER_NAME":"EARTH","BSTAR":"0.00008492000000","OBJECT_ID":"2020-038AG","INCLINATION":"53.0565","COUNTRY_CODE":"US","OBJECT_NAME":"STARLINK-1494","TLE_LINE1":"1 45760U 20038AG  22053.83734080  .00000983  00000-0  84920-4 0  9997","MEAN_ANOMALY":"302.8688","MEAN_MOTION_DOT":"0.00000983","SITE":"AFETR","ELEMENT_SET_NO":"999","EPHEMERIS_TYPE":"0","REV_AT_EPOCH":"9403","LAUNCH_DATE":"2020-06-13","ARG_OF_PERICENTER":"57.2462","GP_ID":"196682474","ECCENTRICITY":"0.00016730","FILE":"3314780","TIME_SYSTEM":"UTC","REF_FRAME":"TEME","PERIAPSIS":"546.080","MEAN_MOTION":"15.06391767","APOAPSIS":"548.397","PERIOD":"95.593","RA_OF_ASC_NODE":"1.9897","EPOCH":"2022-02-22T20:05:46.245120","NORAD_CAT_ID":"45760","DECAY_DATE":null,"MEAN_ELEMENT_THEORY":"SGP4","RCS_SIZE":"LARGE","CLASSIFICATION_TYPE":"U","MEAN_MOTION_DDOT":"0.0000000000000","OBJECT_TYPE":"PAYLOAD"},{"MEAN_MOTION":"15.63600587","PERIAPSIS":"376.796","REF_FRAME":"TEME","EPOCH":"2022-02-22T20:28:16.480128","PERIOD":"92.095","RA_OF_ASC_NODE":"300.9066","APOAPSIS":"377.741","MEAN_ELEMENT_THEORY":"SGP4","RCS_SIZE":"LARGE","DECAY_DATE":null,"NORAD_CAT_ID":"45761","OBJECT_TYPE":"PAYLOAD","CLASSIFICATION_TYPE":"U","MEAN_MOTION_DDOT":"0.0000000000000","OBJECT_ID":"2020-038AH","INCLINATION":"53.0547","CENTER_NAME":"EARTH","BSTAR":"0.00059688000000","TLE_LINE2":"2 45761  53.0547 300.9066 0000700  71.9167 288.1923 15.63600587 94907","SEMIMAJOR_AXIS":"6755.403","ELEMENT_SET_NO":"999","SITE":"AFETR","MEAN_MOTION_DOT":"0.00056349","EPHEMERIS_TYPE":"0","OBJECT_NAME":"STARLINK-1495","MEAN_ANOMALY":"288.1923","TLE_LINE1":"1 45761U 20038AH  22053.85296852  .00056349  00000-0  59688-3 0  9999","COUNTRY_CODE":"US","ARG_OF_PERICENTER":"71.9167","REV_AT_EPOCH":"9490","LAUNCH_DATE":"2020-06-13","FILE":"3314780","TIME_SYSTEM":"UTC","ECCENTRICITY":"0.00007000","GP_ID":"196682725"},{"INCLINATION":"53.0552","OBJECT_ID":"2020-038AJ","SEMIMAJOR_AXIS":"6925.383","TLE_LINE2":"2 45762  53.0552   1.8185 0001704  59.0606 301.0550 15.06388786 94040","BSTAR":"-0.00010431000000","CENTER_NAME":"EARTH","EPHEMERIS_TYPE":"0","SITE":"AFETR","ELEMENT_SET_NO":"999","MEAN_MOTION_DOT":"-0.00001834","COUNTRY_CODE":"US","MEAN_ANOMALY":"301.0550","TLE_LINE1":"1 45762U 20038AJ  22053.87419223 -.00001834  00000-0 -10431-3 0  9995","OBJECT_NAME":"STARLINK-1499","ARG_OF_PERICENTER":"59.0606","REV_AT_EPOCH":"9404","LAUNCH_DATE":"2020-06-13","TIME_SYSTEM":"UTC","FILE":"3314780","GP_ID":"196681473","ECCENTRICITY":"0.00017040","PERIAPSIS":"546.068","MEAN_MOTION":"15.06388786","REF_FRAME":"TEME","PERIOD":"95.593","RA_OF_ASC_NODE":"1.8185","EPOCH":"2022-02-22T20:58:50.208672","APOAPSIS":"548.428","DECAY_DATE":null,"RCS_SIZE":"LARGE","MEAN_ELEMENT_THEORY":"SGP4","NORAD_CAT_ID":"45762","OBJECT_TYPE":"PAYLOAD","MEAN_MOTION_DDOT":"0.0000000000000","CLASSIFICATION_TYPE":"U"},{"REV_AT_EPOCH":"9576","LAUNCH_DATE":"2020-06-13","ARG_OF_PERICENTER":"12.9533","ECCENTRICITY":"0.00043210","GP_ID":"196681723","TIME_SYSTEM":"UTC","FILE":"3314780","CENTER_NAME":"EARTH","BSTAR":"0.00004596300000","TLE_LINE2":"2 45763  53.0498 251.9252 0004321  12.9533 347.1597 15.76729307 95765","SEMIMAJOR_AXIS":"6717.852","OBJECT_ID":"2020-038AK","INCLINATION":"53.0498","OBJECT_NAME":"STARLINK-1501","MEAN_ANOMALY":"347.1597","TLE_LINE1":"1 45763U 20038AK  22053.79556988  .00006873  00000-0  45963-4 0  9992","COUNTRY_CODE":"US","ELEMENT_SET_NO":"999","SITE":"AFETR","MEAN_MOTION_DOT":"0.00006873","EPHEMERIS_TYPE":"0","NORAD_CAT_ID":"45763","MEAN_ELEMENT_THEORY":"SGP4","RCS_SIZE":"LARGE","DECAY_DATE":null,"CLASSIFICATION_TYPE":"U","MEAN_MOTION_DDOT":"0.0000000000000","OBJECT_TYPE":"PAYLOAD","REF_FRAME":"TEME","MEAN_MOTION":"15.76729307","PERIAPSIS":"336.814","APOAPSIS":"342.620","EPOCH":"2022-02-22T19:05:37.237632","RA_OF_ASC_NODE":"251.9252","PERIOD":"91.328"},{"SITE":"AFETR","ELEMENT_SET_NO":"999","MEAN_MOTION_DOT":"-0.00001440","EPHEMERIS_TYPE":"0","OBJECT_NAME":"STARLINK-1502","MEAN_ANOMALY":"302.1261","TLE_LINE1":"1 45764U 20038AL  22053.86683806 -.00001440  00000-0 -77800-4 0  9993","COUNTRY_CODE":"US","INCLINATION":"53.0575","OBJECT_ID":"2020-038AL","CENTER_NAME":"EARTH","BSTAR":"-0.00007780000000","TLE_LINE2":"2 45764  53.0575   1.8404 0001736  57.9897 302.1261 15.06386943 94049","SEMIMAJOR_AXIS":"6925.389","FILE":"3314780","TIME_SYSTEM":"UTC","ECCENTRICITY":"0.00017360","GP_ID":"196682975","ARG_OF_PERICENTER":"57.9897","REV_AT_EPOCH":"9404","LAUNCH_DATE":"2020-06-13","EPOCH":"2022-02-22T20:48:14.808384","RA_OF_ASC_NODE":"1.8404","PERIOD":"95.593","APOAPSIS":"548.456","MEAN_MOTION":"15.06386943","PERIAPSIS":"546.051","REF_FRAME":"TEME","OBJECT_TYPE":"PAYLOAD","CLASSIFICATION_TYPE":"U","MEAN_MOTION_DDOT":"0.0000000000000","MEAN_ELEMENT_THEORY":"SGP4","RCS_SIZE":"LARGE","DECAY_DATE":null,"NORAD_CAT_ID":"45764"}];
